[{"OBJECT_NAME":"STARLINK-6117","OBJECT_ID":"2023-046AQ","EPOCH":"2026-03-09T22:00:01.999584","MEAN_MOTION":15.12014927,"ECCENTRICITY":0.00011707,"INCLINATION":43.0011,"RA_OF_ASC_NODE":144.5633,"ARG_OF_PERICENTER":295.5966,"MEAN_ANOMALY":227.7394,"EPHEMERIS_TYPE":0,"CLASSIFICATION_TYPE":"U","NORAD_CAT_ID":56130,"ELEMENT_SET_NO":999,"REV_AT_EPOCH":578,"BSTAR":0.00047677406,"MEAN_MOTION_DOT":8.12e-5,"MEAN_MOTION_DDOT":0},{"OBJECT_NAME":"PEGASUS DEB","OBJECT_ID":"1994-029BC","EPOCH":"2026-03-09T22:00:19.479168","MEAN_MOTION":15.02669201,"ECCENTRICITY":0.00619411,"INCLINATION":81.9229,"RA_OF_ASC_NODE":10.1044,"ARG_OF_PERICENTER":202.7728,"MEAN_ANOMALY":222.9696,"EPHEMERIS_TYPE":0,"CLASSIFICATION_TYPE":"U","NORAD_CAT_ID":24007,"ELEMENT_SET_NO":999,"REV_AT_EPOCH":60998,"BSTAR":0.00034526552,"MEAN_MOTION_DOT":4.826e-5,"MEAN_MOTION_DDOT":0}]
